[{"OBJECT_NAME":"CSTP 1.2 (STC 1.2)","OBJECT_ID":"2023-091W","EPOCH":"2026-03-09T23:12:27.821952","MEAN_MOTION":15.2718076,"ECCENTRICITY":0.00204388,"INCLINATION":97.5258,"RA_OF_ASC_NODE":134.3262,"ARG_OF_PERICENTER":84.9592,"MEAN_ANOMALY":275.3979,"EPHEMERIS_TYPE":0,"CLASSIFICATION_TYPE":"U","NORAD_CAT_ID":57186,"ELEMENT_SET_NO":999,"REV_AT_EPOCH":14930,"BSTAR":0.00043035718,"MEAN_MOTION_DOT":0.00011466,"MEAN_MOTION_DDOT":0},{"OBJECT_NAME":"STARLINK-34921","OBJECT_ID":"2025-224M","EPOCH":"2026-03-09T05:55:00.064128","MEAN_MOTION":15.30189284,"ECCENTRICITY":0.00011851,"INCLINATION":53.162,"RA_OF_ASC_NODE":13.6012,"ARG_OF_PERICENTER":69.962,"MEAN_ANOMALY":290.1508,"EPHEMERIS_TYPE":0,"CLASSIFICATION_TYPE":"U","NORAD_CAT_ID":65893,"ELEMENT_SET_NO":999,"REV_AT_EPOCH":2480,"BSTAR":0.0013171961,"MEAN_MOTION_DOT":0.00038843,"MEAN_MOTION_DDOT":0}]
